sfid,first name,last name,address,city,state,zip code,email,mobile phone,sms permission,make 1,model 1,year 1,vin 1,mileage 1,sol expires 1,make 2,model 2,year 2,vin 2,mileage 2,sol expires 2,make 3,model 3,year 3,vin 3,mileage 3,sol expires 3,make 4,model 4,year 4,vin 4,mileage 4,sol expires 4
drez7lseqb,Omer,Kunde,43872 Zane Road,New Corrinaview,NJ,60184-6564,omer@corwin.example,(674) 396-5807,No,Honda,Odyssey,2022,489RKD5J2P0128168,32161,2024-07-08,Audi,S5,2019,5557FPZF5P8291517,46503,2025-07-16
fi7jw57gaj,Bobbie,Lynch,931 Bergstrom Village,Lake Claudland,UT,19493-8509,bobbie@hauck-monahan.test,(607) 155-5445,No,Nissan,Pathfiner,2014,4427F7BK34C157878,19092,2024-07-18,Chevy,Silverado,2015,18312EZJ274267749,21369,2025-04-07,Audi,A7,2023,123JH6VY116221993,70932,2027-08-08
xl4cznojad,Sylvia,Hauck,754 Purdy Haven,Norbertoton,ME,78214-7965,sylvia@ledner.test,1-730-535-3650,Yes,Ford,Focus,2020,707K1TUE831494630,59089,2024-08-05,Chevy,Malibu,2018,176W0X1P7R1692637,34731,2024-08-23,Chevy,Malibu,2017,551F3GK23E2337472,36916,2027-07-09
nm9tlez1ns,Vance,Harvey,2894 Altenwerth Valleys,Sammyhaven,IA,54851-2821,vance@weissnat-blanda.test,(619) 408-8028,No,Buick,Enclave,2022,403DLF4X8FK753088,11487,2024-09-02
llegbbnpp1,Jae,Hermiston,994 Michael Junctions,Hillston,MN,37650,jae@macgyver-feil.test,1-516-508-3291,No,Honda,Civic,2016,400T5CDY5VG928229,52091,2024-09-09
try7ilirdz,Erasmo,Stamm,8991 Gleason Canyon,Emmerichbury,CT,53505-8161,erasmo@mosciski.example,642-739-5828,Yes,BMW,X3,2014,788ME1AP6SU317016,84743,2024-09-16,Ford,Fiesta,2022,4811E4P40KU784885,11521,2025-06-09,Toyota,Corolla,2018,455GBD3T2NC579746,85441,2025-11-23,Toyota,Prius,2023,7C4GBN9D3LM326722,60932,2026-05-28
ugayvnnb0c,Armando,Considine,982 Mitchell Plaza,Lake Tyronside,SD,24362,armando@hintz.example,851.658.0839,No,Chevy,Silverado,2022,482N1UDK2JX367454,12064,2024-10-03,Lincoln,MKZ,2018,714EHJZC0F9505968,11699,2026-03-05,Audi,A5,2021,177YS04G88U236306,76263,2026-05-18
51txtz9qx5,Noel,Morissette,93270 Willie Street,Port Albina,OH,20216-0321,noel@effertz.example,545.549.1351,Yes,Buick,Riveria,2017,4349VRXH1EL686417,75523,2024-10-10,Nissan,Pathfiner,2014,516K3XJN9SV829636,38891,2027-06-08
vf8i4i3ew1,Morgan,Wilkinson,101 Lauralee Islands,Armandoland,AK,74470,morgan@powlowski-cole.test,146.390.0781,No,Honda,Odyssey,2020,521J95EH7K2409936,36932,2024-10-29
f0hxzumv6a,Tu,Upton,429 Hackett Loop,Schmitttown,CO,80762,tu@corkery.test,470.413.7998,No,Toyota,Prius,2022,772HB7D64EJ459331,46293,2024-11-06,Toyota,Corolla,2018,7C8F1P3Y5NN510478,89723,2025-05-16
9pzs5m0hoo,Guillermo,Dooley,9122 Connelly Fork,Tuyetchester,DE,04343-7971,guillermo@romaguera-lemke.test,1-824-205-4619,Yes,BMW,X5,2019,7B92GVBE9RU311947,43322,2024-11-10,Ford,F150,2021,7A9351FU332518452,49416,2026-08-07,Lincoln,MKZ,2023,75751HFC6W2865593,20576,2026-11-30,Nissan,Juke,2019,707ZNTRG5F7836341,27509,2027-06-22
v703vu6hr2,Luis,Schiller,228 Gale Locks,Mrazton,ND,05401-8200,luis@quigley.test,389.579.4877,No,Nissan,Juke,2021,15456UPG9H1419846,16825,2024-11-11,Audi,S5,2023,7B9S718C64B114043,24245,2025-09-03,Honda,Accord,2021,4245DB5CXTX778385,20708,2028-04-30
6y0uusmmsb,Liana,Schinner,28991 Considine Lodge,Kunzeville,IN,13000-6992,liana@oconner-fahey.test,(645) 285-9245,Yes,Dodge,Ram,2023,4061J3V2255362318,77919,2025-01-03,Honda,Civic,2016,570648FFX1Z590297,63663,2027-02-01,Honda,CR-V,2015,79720E5M0CL515294,10229,2027-02-18,Toyota,Prius,2022,125SDNPT917447888,43001,2028-03-11
xlkb3al8px,Francine,Mayert,1075 Emard Forest,Albertoshire,KY,4552,francine@jakubowski.test,123-641-7001,Yes,Honda,CR-V,2021,5664KY4T2KU182335,32441,2025-01-07,Buick,Riveria,2023,4275TREU0V9618613,89119,2026-05-25,Dodge,Charger,2021,7A9JGHT06S1239738,53445,2026-10-14
m1ypfceukk,Patrica,Hilll,8037 Aleta Isle,South Doylemouth,UT,23939,patrica@klein-ryan.example,(560) 119-4740,Yes,Audi,A8,2018,468U7GJM9BS221018,48332,2025-01-11,Audi,A4,2018,7B26VEMW3TP986291,58613,2028-02-02
3x5f3gz1ov,Mollie,Runolfsdottir,163 Schroeder Trace,Kundeburgh,NH,52215-5281,mollie@koss.test,1-513-902-8776,Yes,Buick,Encore,2018,1144CRYL3WW227730,74098,2025-02-06,Lincoln,Navigator,2023,1630EZ7V532697744,16108,2025-02-18,Honda,CR-V,2020,17119Y9K0CM665144,65323,2027-10-21,Chevy,Silverado,2021,5410NWGU5KU730987,33471,2028-02-18
7pawpvp830,Autumn,Block,72260 Khalilah Path,Leonorbury,FL,9552,autumn@wyman-schinner.test,1-655-483-6168,Yes,Audi,A7,2018,7D7E29WB1PX874875,66127,2025-03-05,Lincoln,MKS,2011,734SCVMR9PY782863,62607,2026-03-31,Ford,F150,2021,460F9YXG915519952,76074,2028-05-28
w732vy6hd1,Teisha,Howell,191 Jakubowski Viaduct,Phuongborough,NE,28019,teisha@maggio-ullrich.test,396.750.0802,No,Lincoln,Navigator,2019,541XDVUM415194350,87000,2025-05-20,Nissan,Versa,2017,7220RHRC4NN289673,18994,2025-06-09,BMW,M5,2015,464LBMA3XBV236496,15060,2027-10-21
nf0q47i7uw,Chance,Marvin,285 Ira Views,West Vernita,AK,13203-0670,chance@spencer.test,(363) 416-7855,No,Dodge,Durango,2017,443XFAM424F989346,11662,2025-06-20,Nissan,Versa,2016,186FRDYM7XE540009,81189,2026-05-07
w3mt5n8q6y,Ariana,Keeling,366 Cronin Field,Lake Johnny,OR,63233-7091,ariana@flatley.test,(653) 160-0328,No,Buick,LaCrosse,2021,18579SCK8KL103918,17927,2025-07-09,Audi,A8,2021,54175MW45NR434797,85531,2026-01-02,Buick,Enclave,2014,7B5NN6XE1FN819242,74140,2026-03-09,Nissan,Pathfiner,2024,140GDBEK1T2223122,69922,2026-09-22
scnkccjyko,Patricia,Berge,1481 Johnston Keys,New Willisfort,CT,92144-8218,patricia@herman.example,(997) 898-3240,Yes,Ford,Fiesta,2023,7D8ATBX01R2380141,44012,2025-08-03,Dodge,Ram,2020,190SCLT999B553990,83110,2027-07-10,BMW,X5,2022,474E5UE06X9847614,58788,2027-09-25,Ford,Fiesta,2024,7C0036XV34E440829,32272,2027-10-29
38d30x2x7w,Niki,Bernhard,89867 Hand Points,East Lovellaton,IN,44063-7499,niki@bednar.test,807-873-8421,No,Buick,Regal,2023,4673V6BR2SE743661,58336,2025-08-24,Honda,Odyssey,2023,727LDFLJX82909353,36463,2026-07-07,Audi,S5,2023,1858HC0Y9J6145906,75402,2027-11-21
ovlfoyecuc,Jovan,Lynch,774 Eusebio Islands,South Leaview,AZ,34603,jovan@heaney.example,1-675-833-0946,No,BMW,X5,2023,792993RN8PP143560,32700,2025-10-04,Ford,Mustang,2017,7002YDE50X1983592,44205,2026-10-20
xm5208stvs,Mitch,Pfannerstill,2689 Delsie Mill,Kuhlmanchester,MD,09165-8171,mitch@kris-blick.test,(251) 055-6720,No,Nissan,Juke,2014,498HJAXK8C1909128,83758,2025-10-13,Lincoln,MKX,2022,410SAXMT84M309775,49329,2025-10-14,Buick,Enclave,2018,5887HNARX2E614938,31769,2027-07-12
bba6s199ye,Ed,Bayer,122 Huels Hill,Port Bruce,LA,47485,ed@gibson.example,735-491-2095,Yes,Chevy,Camero,2019,515S7LAC593908193,32064,2025-10-16,Honda,CR-V,2022,479TWMFZ6X0803094,22300,2026-04-03,BMW,328i,2024,146EZ25T09A949396,46151,2027-12-01
doyltqskht,Edwin,Muller,9576 Winston Rue,Doylestad,TN,57517,edwin@gibson.example,(735) 675-0134,No,Ford,Mustang,2014,410W25UR62M335571,34316,2025-12-02,Lincoln,Navigator,2022,796D2FGL7PK967756,37139,2025-12-27,Ford,Fiesta,2020,73041D8A22C436478,41626,2026-04-19,Toyota,Prius,2020,421NC3JD1NZ333500,11192,2028-06-06
vxcg80mezr,Gene,Strosin,95566 Jasper Isle,Robertsstad,MI,98085-0968,gene@thiel-cole.test,1-574-956-9352,No,Audi,A8,2023,57203FLWXXR930663,38070,2026-02-09,BMW,X3,2015,7316NP9B9BM704602,85422,2026-03-10,Dodge,Ram,2019,558CWNR10JB754667,36399,2028-03-09
e9wjmtup8e,Blake,Schulist,1339 Robbi Garden,Lake Luigishire,NV,58833-1128,blake@murazik.example,848-519-6092,Yes,Dodge,Charger,2024,413AYAK65GM212963,59629,2026-02-27
wooqy4wpg3,Kenny,Braun,926 Schiller Key,North Raymond,MD,31517-1297,kenny@lehner-tillman.test,1-189-304-8075,Yes,Audi,A5,2024,7296S9568T7729076,67423,2026-03-04,Ford,F150,2023,722WK5SYX7Z547533,69514,2027-04-09,Audi,A8,2023,7F3UVYS418B753225,25497,2027-11-20
0wm6uw8t2y,Wayne,Schoen,8700 Jerde Summit,West Suzette,AZ,24579,wayne@daniel.example,(161) 053-4669,Yes,Chevy,Malibu,2018,7D7KG9K86C9629230,43872,2026-05-22,Toyota,Prius,2020,7522HS0Z6CR347274,72685,2027-06-01
exupqhjwve,Casey,Morissette,7079 Inell Crossing,South Irvintown,IA,8019,casey@wunsch.test,(166) 247-5459,Yes,Ford,F150,2023,417G8RZW1PS643812,89366,2026-05-24,Buick,Regal,2022,5595029X5LD272423,22245,2026-09-29,Ford,Fiesta,2023,7B4PU09Z9CG466942,20188,2028-03-27,Honda,Odyssey,2019,7F0MKDRH4XK545488,40434,2028-05-29
usjlnfoqwy,Ellis,Steuber,329 Stroman Bridge,East Stefan,MS,32013,ellis@kihn.test,900-206-0787,Yes,Buick,Riveria,2019,163PD5HTXAB221719,49353,2026-08-15,Audi,A7,2021,1502H7EW25B580510,19319,2026-11-11,Toyota,Prius,2019,571DEUFE1V3625625,89696,2027-04-26,Nissan,Pathfiner,2016,568YRMZV7RU332392,15853,2027-05-28
pc2ym0fd4e,Gale,Lowe,6627 Hane Loop,Franeckimouth,NC,46915-2896,gale@boehm.example,712.024.0132,Yes,Toyota,Corolla,2021,599W5T4G2XD147125,87607,2026-08-23
jzn4twi4kn,Beulah,Kozey,73441 Dinah Fork,East Emile,VA,50893,beulah@ziemann.test,200.403.0021,Yes,Nissan,Pathfiner,2015,5736GZC52Y2393655,38027,2026-08-31
1f8erob1em,Merrill,Flatley,46294 Clifton Rest,Gottliebville,LA,77642-3562,merrill@kuvalis.test,130.314.1023,Yes,Nissan,Rogue,2023,4492MFGD4KR894703,69868,2026-11-19,Dodge,Durango,2022,5134NFVM5P5172840,74896,2027-06-13
z6s8ahendz,Penni,Harber,82102 Simonis Gardens,Lake Kimbra,NJ,73803,penni@hand-oconner.test,924-522-8962,Yes,Chevy,Silverado,2024,7F4676E79EJ227743,20217,2026-12-02
56e7zk6nrg,Fletcher,Lowe,72574 Cronin Track,North Devinfort,TN,73637-7824,fletcher@pouros.test,(844) 716-6256,No,Dodge,Durango,2018,400AY9M92DW943866,65774,2026-12-16,Dodge,Challenger,2022,537FB4TZ4J8262172,74806,2027-06-06,Audi,A4,2021,4357NX705FX356114,60025,2028-02-01,Nissan,Versa,2023,762KTRME8EW937501,28683,2028-05-02
opsy7kyh28,Daniella,Larson,82034 Morissette Viaduct,South Altheamouth,MD,04603-9507,daniella@stehr.test,(159) 883-9148,Yes,Ford,Mustang,2021,758417X872F849403,19103,2027-02-26
ipwvpizriu,Joi,Schultz,1019 Quitzon Track,Norrisfurt,NY,32443-1459,joi@abernathy.test,808.459.0727,No,Lincoln,MKX,2020,100TTYP0XSZ464106,46227,2027-05-17
hxk91py3gb,Porfirio,Bosco,5120 Garrett Extension,West Brettstad,AL,31583-5030,porfirio@predovic.example,679.244.7017,Yes,Buick,Verano,2022,428KJ1001H2209284,43014,2027-12-16
i283010ypo,Charis,Wolff,51172 Abbott Forks,New Marsha,TX,17363,charis@jast-stoltenberg.test,1-859-060-2426,Yes,Nissan,Altima,2018,571V18RD5BZ415340,21416,2028-03-15
op2r5qyxu7,Asha,Reinger,258 Dusty River,Johnathonbury,CA,97384-4641,asha@friesen.example,994.248.3200,Yes,Honda,Civic,2022,443F9LZD3VF358470,28996,2028-05-13
